GPS BIIR-2  (PRN 13)    
1 24876U 97035A   26055.52260908 -.00000004  00000+0  00000+0 0  9994
2 24876  55.9308 102.9797 0097751  56.3307 304.6651  2.00563888209698
GPS BIIR-5  (PRN 22)    
1 26407U 00040A   26055.85241871  .00000071  00000+0  00000+0 0  9993
2 26407  54.8773 219.6216 0122878 302.5147 229.6261  2.00568716187696
GPS BIIR-8  (PRN 16)    
1 27663U 03005A   26056.43797476  .00000064  00000+0  00000+0 0  9996
2 27663  54.9090 219.4063 0148757  52.6719 318.2530  2.00566546169079
GPS BIIR-11 (PRN 19)    
1 28190U 04009A   26052.44332799  .00000014  00000+0  00000+0 0  9992
2 28190  54.9246 280.3633 0110460 168.8041 353.9783  2.00558331160627
GPS BIIR-13 (PRN 02)    
1 28474U 04045A   26055.62116723 -.00000080  00000+0  00000+0 0  9991
2 28474  55.1993 329.4329 0170955 312.5008  47.7976  2.00572859156175
GPS BIIRM-1 (PRN 17)    
1 28874U 05038A   26055.67643329  .00000027  00000+0  00000+0 0  9990
2 28874  54.9687 277.7173 0129017 295.2187  65.3429  2.00573403149588
INMARSAT 4-F2 (SOUTHPA*)
1 28899U 05044A   26056.41055770 -.00000267  00000+0  00000+0 0  9991
2 28899   4.9474  43.7982 0002418 303.9398  98.8158  1.00271511 74401
GPS BIIRM-2 (PRN 31)    
1 29486U 06042A   26056.33297001 -.00000018  00000+0  00000+0 0  9993
2 29486  54.6978 155.7811 0106272  53.1192 318.5935  2.00551267142152
GPS BIIRM-3 (PRN 12)    
1 29601U 06052A   26056.23331208  .00000066  00000+0  00000+0 0  9992
2 29601  54.9581 218.4412 0088040  89.2456 271.7411  2.00551001141168
GPS BIIRM-4 (PRN 15)    
1 32260U 07047A   26056.04185326 -.00000004  00000+0  00000+0 0  9992
2 32260  54.0096  84.6875 0163565  85.9010 276.0268  2.00560996134563
COSMOS 2433 (720)       
1 32275U 07052A   26056.23229397 -.00000053  00000+0  00000+0 0  9996
2 32275  65.6393 319.7039 0002474 271.6100  88.4078  2.13103970142670
COSMOS 2432 (719)       
1 32276U 07052B   26054.12510391 -.00000048  00000+0  00000+0 0  9994
2 32276  65.6566 319.9003 0010834 328.5717 159.1343  2.13103248142658
GPS BIIRM-5 (PRN 29)    
1 32384U 07062A   26056.10449906  .00000026  00000+0  00000+0 0  9993
2 32384  55.1204 278.6573 0032716 160.6383  12.8855  2.00552947133261
COSMOS 2434 (721)       
1 32393U 07065A   26055.43328079  .00000056  00000+0  00000+0 0  9991
2 32393  64.3189 195.7156 0004105  71.0412 286.3387  2.13101226141362
COSMOS 2436 (723)       
1 32395U 07065C   26055.75100142  .00000051  00000+0  00000+0 0  9992
2 32395  64.3275 195.7760 0017587   8.1541   5.7412  2.13100126141330
GPS BIIRM-6 (PRN 07)    
1 32711U 08012A   26055.46184001 -.00000006  00000+0  00000+0 0  9992
2 32711  54.4820 154.4295 0206515 246.0470 111.7923  2.00568752131498
GPS BIIRM-8 (PRN 05)    
1 35752U 09043A   26055.93532076 -.00000047  00000+0  00000+0 0  9991
2 35752  56.1433  31.8612 0051572  80.7344 277.3446  2.00560757121103
COSMOS 2456 (730)       
1 36111U 09070A   26054.99816745  .00000023  00000+0  00000+0 0  9997
2 36111  64.9429  74.8330 0006117 302.7819 238.2998  2.13103662126013
COSMOS 2457 (733)       
1 36112U 09070B   26056.47633801  .00000029  00000+0  00000+0 0  9999
2 36112  64.9294  74.6286 0002530 192.2967 171.2331  2.13100960126052
COSMOS 2460 (732)       
1 36402U 10007C   26055.29836382 -.00000049  00000+0  00000+0 0  9994
2 36402  65.4850 318.2892 0001800 359.7851 180.6845  2.13106120124325
GPS BIIF-1  (PRN 25)    
1 36585U 10022A   26052.78789276  .00000073  00000+0  00000+0 0  9999
2 36585  54.2909 213.2086 0127407  65.8129 296.5355  2.00556631115282
BEIDOU-2 IGSO-1 (C06)   
1 36828U 10036A   26053.92513572 -.00000119  00000+0  00000+0 0  9997
2 36828  54.2933 163.9971 0053888 218.4151 209.2153  1.00254845 56951
BEIDOU-2 G4 (C04)       
1 37210U 10057A   26056.48517804 -.00000120  00000+0  00000+0 0  9994
2 37210   3.3676  69.5836 0009434 208.8002 211.6099  1.00271966 56176
BEIDOU-2 IGSO-2 (C07)   
1 37256U 10068A   26055.39048083 -.00000164  00000+0  00000+0 0  9991
2 37256  47.7470 273.2281 0047412 213.1314 275.9707  1.00261230 55666
BEIDOU-2 IGSO-3 (C08)   
1 37384U 11013A   26054.90500897 -.00000155  00000+0  00000+0 0  9996
2 37384  62.2580  41.2202 0035056 190.6567 353.3010  1.00294787 54523
GSAT-8 (GAGAN/PRN 127)  
1 37605U 11022A   26056.46446461  .00000077  00000+0  00000+0 0  9993
2 37605   1.8414  83.2532 0007966 211.0359  83.2937  1.00271234 52091
BEIDOU-2 IGSO-4 (C09)   
1 37763U 11038A   26055.75951572 -.00000094  00000+0  00000+0 0  9990
2 37763  54.5898 166.6891 0154201 230.8439 125.1603  1.00267222 53510
GSAT0101 (GALILEO-PFM)  
1 37846U 11060A   26053.46432651 -.00000082  00000+0  00000+0 0  9992
2 37846  57.0318 344.8758 0003975 357.0591   2.9533  1.70475478 89166
GSAT0102 (GALILEO-FM2)  
1 37847U 11060B   26053.09802566 -.00000081  00000+0  00000+0 0  9997
2 37847  57.0325 344.8861 0005461 338.0997 202.6314  1.70475770 89162
COSMOS 2476 (744)       
1 37867U 11064A   26055.35173462  .00000025  00000+0  00000+0 0  9997
2 37867  65.2036  76.6806 0025297 240.7176 119.9547  2.13103736111364
COSMOS 2477 (745)       
1 37868U 11064B   26055.74660906  .00000027  00000+0  00000+0 0  9997
2 37868  65.2103  76.7455 0022396 241.9087 242.3859  2.13102935111369
COSMOS 2475 (743)       
1 37869U 11064C   26054.40569505  .00000023  00000+0  00000+0 0  9999
2 37869  65.2164  76.8115 0028194 253.5225 237.6760  2.13101744111349
BEIDOU-2 IGSO-5 (C10)   
1 37948U 11073A   26052.98191516 -.00000096  00000+0  00000+0 0  9992
2 37948  47.8868 272.9700 0108599 221.1355 106.4698  1.00274471 51974
LUCH 5A (SDCM/PRN 140)  
1 37951U 11074B   26056.34391072 -.00000057  00000+0  00000+0 0  9997
2 37951   8.4682  75.4534 0004272 234.8503 135.7141  1.00274220 51931
BEIDOU-2 G5 (C05)       
1 38091U 12008A   26056.53645094  .00000049  00000+0  00000+0 0  9998
2 38091   3.2934  70.3486 0014216 248.3077  88.5535  1.00273896 51249
BEIDOU-2 M3 (C11)       
1 38250U 12018A   26054.89062910 -.00000048  00000+0  00000+0 0  9993
2 38250  55.8544 308.6964 0021769 279.4802  80.3272  1.86229955 93836
BEIDOU-2 M4 (C12)       
1 38251U 12018B   26054.82276823 -.00000046  00000+0  00000+0 0  9995
2 38251  55.7554 307.9217 0013121 286.3091  73.6004  1.86229666 93837
SES-5 (EGNOS/PRN 136)   
1 38652U 12036A   26056.39489245  .00000027  00000+0  00000+0 0  9996
2 38652   0.0595 306.1519 0002167  20.0917 336.1336  1.00271291 43336
BEIDOU-2 M6 (C14)       
1 38775U 12050B   26055.60697840 -.00000004  00000+0  00000+0 0  9999
2 38775  56.4457  66.6157 0013757 341.2992  18.6891  1.86230791 91210
GSAT-10 (GAGAN/PRN 128) 
1 38779U 12051B   26056.39859764 -.00000170  00000+0  00000+0 0  9990
2 38779   0.0903 264.9175 0003279 177.5436 299.1918  1.00268984 48971
GPS BIIF-3  (PRN 24)    
1 38833U 12053A   26056.13835923 -.00000020  00000+0  00000+0 0  9990
2 38833  53.5652 148.1913 0176845  64.7338 297.1074  2.00565625 97199
GSAT0103 (GALILEO-FM3)  
1 38857U 12055A   26054.67791460  .00000006  00000+0  00000+0 0  9995
2 38857  55.7330 104.6603 0005198 284.0686  75.9459  1.70473275 83076
BEIDOU-2 G6 (C02)       
1 38953U 12059A   26056.54147763 -.00000183  00000+0  00000+0 0  9992
2 38953   4.1368  74.7222 0010159 300.7084  58.9146  1.00270100 48785
LUCH 5B (SDCM/PRN 125)  
1 38977U 12061A   26056.30759722 -.00000144  00000+0  00000+0 0  9996
2 38977  10.2412  50.9716 0004705 218.2729 340.3430  1.00271684 48481
COSMOS 2485 (747)       
1 39155U 13019A   26055.75715815  .00000027  00000+0  00000+0 0  9991
2 39155  65.3545  77.3775 0025606 236.3419 123.4668  2.13103048 99882
GPS BIIF-4  (PRN 27)    
1 39166U 13023A   26055.50458502  .00000034  00000+0  00000+0 0  9996
2 39166  54.5919 273.5629 0141416  49.7879 311.4884  2.00564120 93624
IRNSS-1A                
1 39199U 13034A   26056.10765630  .00000069  00000+0  00000+0 0  9992
2 39199  35.4724  65.4715 0017963 190.6051 352.7578  1.00267890 46240
GPS BIIF-5  (PRN 30)    
1 39533U 14008A   26053.50824450  .00000020  00000+0  00000+0 0  9990
2 39533  53.6372 153.9988 0081947 227.9313 131.3893  2.00552364 87381
ASTRA 5B (EGNOS/PRN 123)
1 39617U 14011B   26056.38377961  .00000130  00000+0  00000+0 0  9998
2 39617   0.1066 292.2526 0003969  23.3444   1.2897  1.00272887 43544
COSMOS 2492 (754)       
1 39620U 14012A   26056.18522435 -.00000050  00000+0  00000+0 0  9991
2 39620  65.3622 317.7453 0013457 324.8721  35.0874  2.13103220 92858
IRNSS-1B                
1 39635U 14017A   26056.10765630  .00000133  00000+0  00000+0 0  9991
2 39635  29.1229 242.3148 0020869 179.0780 187.3315  1.00268849 43670
LUCH 5V (SDCM/PRN 141)  
1 39727U 14023A   26056.54355763 -.00000277  00000+0  00000+0 0  9990
2 39727   4.8557  70.8422 0002874 268.0184 106.9150  1.00273941 43244
GPS BIIF-6  (PRN 06)    
1 39741U 14026A   26055.78125530 -.00000086  00000+0  00000+0 0  9999
2 39741  56.5502 335.8966 0039949 324.0375  35.7195  2.00569074 86284
COSMOS 2500 (755)       
1 40001U 14032A   26054.01016572 -.00000044  00000+0  00000+0 0  9991
2 40001  65.2989 317.5757 0005332 207.2117 152.8129  2.13106041 91022
GPS BIIF-7  (PRN 09)    
1 40105U 14045A   26056.36678576 -.00000001  00000+0  00000+0 0  9991
2 40105  55.2761  92.9190 0031643 120.6051 239.7710  2.00550914 83837
GSAT0201 (GALILEO 5)    
1 40128U 14050A   26054.15200256  .00000008  00000+0  00000+0 0  9999
2 40128  48.9974 278.1029 1656411 174.9657 186.9575  1.85519860 76209
GSAT0202 (GALILEO 6)    
1 40129U 14050B   26055.48590970  .00000014  00000+0  00000+0 0  9999
2 40129  49.0133 277.1329 1657367 175.7712 185.8508  1.85520262 78397
IRNSS-1C                
1 40269U 14061A   26056.11337633 -.00000169  00000+0  00000+0 0  9994
2 40269   6.2303  91.1240 0019657 356.4685 191.2064  1.00270992 41568
GPS BIIF-8  (PRN 03)    
1 40294U 14068A   26056.24551739 -.00000041  00000+0  00000+0 0  9997
2 40294  56.9144  35.2677 0062481  68.0505 292.6165  2.00569219 82965
COSMOS 2501 (702K)      
1 40315U 14075A   26055.67840073  .00000049  00000+0  00000+0 0  9994
2 40315  63.6174 194.2636 0020617 205.2655 154.6116  2.13101266 87454
GPS BIIF-9  (PRN 26)    
1 40534U 15013A   26056.37658153  .00000048  00000+0  00000+0 0  9993
2 40534  53.1877 208.8000 0108698  39.7434 321.0157  2.00557911 79587
GSAT0203 (GALILEO 7)    
1 40544U 15017A   26052.06918705 -.00000079  00000+0  00000+0 0  9997
2 40544  56.8259 344.7641 0004657 295.5206  64.4464  1.70475628 67229
GSAT0204 (GALILEO 8)    
1 40545U 15017B   26053.49791879 -.00000083  00000+0  00000+0 0  9992
2 40545  56.8312 344.7431 0004628 284.7310  75.2327  1.70475470 30291
BEIDOU-3S IGSO-1S (C31) 
1 40549U 15019A   26055.61703505 -.00000164  00000+0  00000+0 0  9993
2 40549  49.4051 296.8186 0035834 190.5775 345.7199  1.00275362 39943
GPS BIIF-10 (PRN 08)    
1 40730U 15033A   26055.54004631  .00000037  00000+0  00000+0 0  9995
2 40730  54.0705 271.7295 0114306  28.8006 331.8709  2.00561831 77730
BEIDOU-3S M2S (C58)     
1 40748U 15037A   26055.02696194 -.00000043  00000+0  00000+0 0  9990
2 40748  54.9706 305.9445 0009260 278.1593  81.7896  1.86231985 72010
BEIDOU-3S M1S (C57)     
1 40749U 15037B   26056.32195234 -.00000042  00000+0  00000+0 0  9993
2 40749  54.9656 305.8878 0004465  25.9938 334.0817  1.86253900 72048
GSAT0205 (GALILEO 9)    
1 40889U 15045A   26043.95434207  .00000078  00000+0  00000+0 0  9996
2 40889  53.6403 225.6057 0359599  59.9658 303.5577  1.67410800 64211
GSAT0206 (GALILEO 10)   
1 40890U 15045B   26055.83316921  .00000062  00000+0  00000+0 0  9993
2 40890  54.9801 224.7034 0003937  50.5969 309.4119  1.70473516 65123
BEIDOU-3S IGSO-2S (C56) 
1 40938U 15053A   26027.67705003 -.00000079  00000+0  00000+0 0  9998
2 40938  49.4373 260.4556 0061515 187.1638  17.4903  1.00254296 37942
GPS BIIF-11 (PRN 10)    
1 41019U 15062A   26055.10039701 -.00000039  00000+0  00000+0 0  9999
2 41019  56.8870  35.1681 0111493 231.4206 127.5807  2.00566930 75566
GSAT-15 (GAGAN/PRN 139) 
1 41028U 15065A   26056.47058691 -.00000265  00000+0  00000+0 0  9993
2 41028   0.1066 269.5195 0000786  46.2608 102.4597  1.00270734 37679
GSAT0209 (GALILEO 12)   
1 41174U 15079A   26055.41469769  .00000003  00000+0  00000+0 0  9994
2 41174  55.7541 104.3550 0004712 323.2872  36.7508  1.70474367 62854
GSAT0208 (GALILEO 11)   
1 41175U 15079B   26056.22149259  .00000001  00000+0  00000+0 0  9992
2 41175  55.7526 104.3298 0003492 333.5980  26.4539  1.70474322 63284
IRNSS-1E                
1 41241U 16003A   26051.61610370 -.00000285  00000+0  00000+0 0  9994
2 41241  32.9803  61.4290 0018329 191.6255 230.9097  1.00267075 36910
GPS BIIF-12 (PRN 32)    
1 41328U 16007A   26056.18259040 -.00000001  00000+0  00000+0 0  9990
2 41328  55.4506  93.8995 0095239 245.7997 113.2643  2.00556977 73594
COSMOS 2514 (751)       
1 41330U 16008A   26056.13204940 -.00000048  00000+0  00000+0 0  9999
2 41330  65.0871 316.8548 0009271 211.0790 148.9151  2.13102476 78239
IRNSS-1F                
1 41384U 16015A   26056.24597693  .00000149  00000+0  00000+0 0  9999
2 41384   5.0666  99.4492 0019388 187.3597 349.3046  1.00267478 36543
BEIDOU-2 IGSO-6 (C13)   
1 41434U 16021A   26056.40154433 -.00000136  00000+0  00000+0 0  9998
2 41434  60.0763  39.1483 0059821 233.2749 123.0478  1.00279030 36357
IRNSS-1G                
1 41469U 16027A   26056.47919802 -.00000344  00000+0  00000+0 0  9999
2 41469   4.9181 100.1903 0005070 312.8325  44.3835  1.00271956 36051
GSAT0211 (GALILEO 14)   
1 41549U 16030A   26054.58576499  .00000066  00000+0  00000+0 0  9993
2 41549  55.1330 224.8160 0003704  26.8030 333.1889  1.70473599 60745
GSAT0210 (GALILEO 13)   
1 41550U 16030B   26054.25646292  .00000067  00000+0  00000+0 0  9999
2 41550  55.1329 224.8232 0001007 186.7565 173.2142  1.70473772 60724
BEIDOU-2 G7 (C03)       
1 41586U 16037A   26056.47538466 -.00000360  00000+0  00000+0 0  9991
2 41586   1.4426  68.0952 0007127 341.0218  27.9112  1.00270692  5777
EUTELSAT 117 WEST B (W*)
1 41589U 16038B   26056.43031778 -.00000019  00000+0  00000+0 0  9996
2 41589   0.0098 261.4796 0000390 170.2473 121.4658  1.00273480 35546
GSAT0207 (GALILEO 15)   
1 41859U 16069A   26053.94823159  .00000010  00000+0  00000+0 0  9995
2 41859  55.4232 104.2472 0004842 308.5999  51.4321  1.70474375 57456
GSAT0212 (GALILEO 16)   
1 41860U 16069B   26056.14811374  .00000001  00000+0  00000+0 0  9998
2 41860  55.4223 104.1814 0003298 339.3208  20.7353  1.70474602 57745
GSAT0213 (GALILEO 17)   
1 41861U 16069C   26055.34240339  .00000003  00000+0  00000+0 0  9999
2 41861  55.4240 104.2117 0005067 291.2506  68.7655  1.70474866 57597
GSAT0214 (GALILEO 18)   
1 41862U 16069D   26053.72872178  .00000011  00000+0  00000+0 0  9991
2 41862  55.4215 104.2492 0003965 294.8877  65.1475  1.70474756 57691
SES-15 (WAAS/PRN 133)   
1 42709U 17026A   26056.42789110  .00000053  00000+0  00000+0 0  9995
2 42709   0.0071 291.9834 0000934  25.8113 222.3343  1.00269694  6310
QZS-2 (QZSS/PRN 194)    
1 42738U 17028A   26051.84769134 -.00000098  00000+0  00000+0 0  9994
2 42738  39.6068 244.8483 0747186 270.2298  82.8688  1.00265008  6462
QZS-3 (QZSS/PRN 199)    
1 42917U 17048A   26056.47867800 -.00000355  00000+0  00000+0 0  9994
2 42917   0.0597 146.8772 0001542 180.6516 127.1550  1.00268630 31135
COSMOS 2522 (752)       
1 42939U 17055A   26055.50072103  .00000054  00000+0  00000+0 0  9998
2 42939  64.0796 195.7165 0006977 226.0717 133.8487  2.13101695 65574
QZS-4 (QZSS/PRN 195)    
1 42965U 17062A   26052.57384556 -.00000296  00000+0  00000+0 0  9996
2 42965  40.1802 344.9639 0749564 269.6050 243.6917  1.00283220 30647
BEIDOU-3 M1 (C19)       
1 43001U 17069A   26055.37242274 -.00000004  00000+0  00000+0 0  9993
2 43001  56.5930  66.7995 0012188 308.4294  51.5001  1.86230856 56507
BEIDOU-3 M2 (C20)       
1 43002U 17069B   26055.31089926 -.00000004  00000+0  00000+0 0  9991
2 43002  56.5919  66.8377 0009310 327.3832  32.5983  1.86230801 56497
GSAT0215 (GALILEO 19)   
1 43055U 17079A   26055.97852130  .00000061  00000+0  00000+0 0  9999
2 43055  55.1086 224.5910 0000742  23.0308 336.9462  1.70474281 51076
GSAT0216 (GALILEO 20)   
1 43056U 17079B   26054.51000195  .00000066  00000+0  00000+0 0  9990
2 43056  55.1104 224.6316 0001653 327.1068  32.8552  1.70474410 51067
GSAT0217 (GALILEO 21)   
1 43057U 17079C   26055.90391713  .00000061  00000+0  00000+0 0  9999
2 43057  55.1091 224.5909 0002108   0.6924 359.2816  1.70474331 51072
GSAT0218 (GALILEO 22)   
1 43058U 17079D   26054.95079795  .00000065  00000+0  00000+0 0  9991
2 43058  55.1098 224.6150 0001852 309.0973  50.8594  1.70474309 51087
BEIDOU-3 M7 (C27)       
1 43107U 18003A   26055.05300858 -.00000044  00000+0  00000+0 0  9991
2 43107  54.4283 306.2625 0004425  69.3578 290.7427  1.86232421 55246
BEIDOU-3 M8 (C28)       
1 43108U 18003B   26054.46154819 -.00000044  00000+0  00000+0 0  9990
2 43108  54.4216 306.2656 0003373 291.7690  68.2495  1.86230914 55242
BEIDOU-3 M4 (C22)       
1 43207U 18018A   26051.68200615  .00000003  00000+0  00000+0 0  9997
2 43207  56.5479  66.9896 0006393 349.3674  10.6671  1.86231107 54576
BEIDOU-3 M3 (C21)       
1 43208U 18018B   26053.35931450 -.00000004  00000+0  00000+0 0  9994
2 43208  56.5491  66.9382 0009632 317.6300  42.3367  1.86231127 54604
BEIDOU-3 M9 (C29)       
1 43245U 18029A   26055.18723168 -.00000039  00000+0  00000+0 0  9993
2 43245  54.2955 303.9029 0000894   3.8561 356.1986  1.86228074 53790
BEIDOU-3 M10 (C30)      
1 43246U 18029B   26055.12214845 -.00000039  00000+0  00000+0 0  9995
2 43246  54.2933 303.9323 0005070  20.8289 339.2459  1.86229072 53775
IRNSS-1I                
1 43286U 18035A   26053.87415791  .00000083  00000+0  00000+0 0  9997
2 43286  28.9054  75.9637 0019755 189.0644 257.4485  1.00274014 28935
COSMOS 2527 (756)       
1 43508U 18053A   26054.05417329  .00000024  00000+0  00000+0 0  9999
2 43508  65.5120  77.7143 0009711 242.9940 116.9612  2.13102273 59841
BEIDOU-2 IGSO-7 (C16)   
1 43539U 18057A   26055.70878243 -.00000148  00000+0  00000+0 0  9994
2 43539  55.1861 164.0434 0099914 236.5705 121.2964  1.00285014 27997
GSAT0221 (GALILEO 25)   
1 43564U 18060A   26054.26743472 -.00000085  00000+0  00000+0 0  9991
2 43564  57.2066 344.8597 0005795 305.3678  54.5918  1.70475294 47224
GSAT0222 (GALILEO 26)   
1 43565U 18060B   26055.66007047 -.00000092  00000+0  00000+0 0  9996
2 43565  57.2093 344.8256 0004435 285.4820  74.4799  1.70474973 47292
GSAT0219 (GALILEO 23)   
1 43566U 18060C   26053.53475141 -.00000082  00000+0  00000+0 0  9994
2 43566  57.2094 344.8846 0005774 308.6957  51.2673  1.70475208 47235
GSAT0220 (GALILEO 24)   
1 43567U 18060D   26051.99595043 -.00000078  00000+0  00000+0 0  9992
2 43567  57.2099 344.9269 0005475 307.1569  52.8078  1.70475125 47191
BEIDOU-3 M5 (C23)       
1 43581U 18062A   26054.27241236  .00000049  00000+0  00000+0 0  9993
2 43581  54.0893 186.1765 0001821 317.4920  42.4646  1.86228420 51515
BEIDOU-3 M6 (C24)       
1 43582U 18062B   26054.13527463  .00000051  00000+0  00000+0 0  9991
2 43582  54.0887 186.1705 0006391  45.6610 314.3619  1.86227370 51510
BEIDOU-3 M12 (C26)      
1 43602U 18067A   26051.38888858  .00000054  00000+0  00000+0 0  9994
2 43602  54.1841 185.0003 0008805  41.4640 318.5648  1.86227913 50949
BEIDOU-3 M11 (C25)      
1 43603U 18067B   26056.35625331  .00000015  00000+0  00000+0 0  9999
2 43603  54.1810 184.7959 0005032  35.3631 324.6369  1.86227089 51069
BEIDOU-3 M13 (C32)      
1 43622U 18072A   26056.31220907 -.00000002  00000+0  00000+0 0  9999
2 43622  56.5257  66.3506 0008759 306.1157  53.8425  1.86230956 50571
BEIDOU-3 M14 (C33)      
1 43623U 18072B   26055.64071037 -.00000004  00000+0  00000+0 0  9995
2 43623  56.5269  66.3668 0006173 327.0239  32.9762  1.86231019 50556
BEIDOU-3 M16 (C35)      
1 43647U 18078A   26053.11293020 -.00000037  00000+0  00000+0 0  9991
2 43647  54.1936 304.0220 0008366  29.4720 330.6342  1.86232163 50011
BEIDOU-3 M15 (C34)      
1 43648U 18078B   26052.16831389 -.00000034  00000+0  00000+0 0  9999
2 43648  54.1906 304.0566 0005149  33.6062 326.4889  1.86232341 50011
BEIDOU-3 G1 (C59)       
1 43683U 18085A   26056.48127802 -.00000286  00000+0  00000+0 0  9992
2 43683   2.7913 100.6192 0001209  39.7634 328.2891  1.00270731 26946
COSMOS 2529 (757)       
1 43687U 18086A   26052.74338542  .00000072  00000+0  00000+0 0  9999
2 43687  64.2959 196.4891 0007743 252.8532 107.0365  2.13101876 56823
BEIDOU-3 M17 (C36)      
1 43706U 18093A   26054.45261713  .00000048  00000+0  00000+0 0  9997
2 43706  54.1726 186.1545 0006716 298.3256  46.2225  1.86228133 49415
BEIDOU-3 M18 (C37)      
1 43707U 18093B   26054.87473145  .00000042  00000+0  00000+0 0  9992
2 43707  54.1735 186.1320 0005873 343.8901  16.0615  1.86226281 49424
GPS BIII-1  (PRN 04)    
1 43873U 18109A   26055.57255189 -.00000002  00000+0  00000+0 0  9995
2 43873  55.6094  96.6289 0037879 198.0714 334.0613  2.00556146 52815
BEIDOU-3 IGSO-1 (C38)   
1 44204U 19023A   26056.33489735 -.00000195  00000+0  00000+0 0  9994
2 44204  58.5432  38.7990 0025953 236.2996 119.9503  1.00272238  6087
BEIDOU-2 G8 (C01)       
1 44231U 19027A   26056.48740308 -.00000255  00000+0  00000+0 0  9997
2 44231   1.8486  74.7421 0009177 267.2744 133.3307  1.00269579 24964
COSMOS 2534 (758)       
1 44299U 19030A   26054.41902512  .00000067  00000+0  00000+0 0  9993
2 44299  64.3695 196.4439 0009271 281.1294  58.7225  2.13102150 52499
BEIDOU-3 IGSO-2 (C39)   
1 44337U 19035A   26055.69200206 -.00000153  00000+0  00000+0 0  9990
2 44337  55.2337 159.8531 0038798 206.2116 153.3447  1.00248145 24539
GPS BIII-2  (PRN 18)    
1 44506U 19056A   26056.20866679 -.00000088  00000+0  00000+0 0  9998
2 44506  55.6882 335.5959 0057997 198.3446 333.0976  2.00567829 47827
BEIDOU-3 M24 (C46)      
1 44542U 19061A   26054.94482250  .00000042  00000+0  00000+0 0  9991
2 44542  54.4004 186.5462 0008707  22.8965 337.1122  1.86228795 43682
BEIDOU-3 M23 (C45)      
1 44543U 19061B   26054.00729348  .00000053  00000+0  00000+0 0  9993
2 44543  54.3991 186.5465 0005163  17.9846 345.7720  1.86227068 43676
EUTELSAT 5 WEST B (EGN*)
1 44624U 19067A   26056.30985056 -.00000049  00000+0  00000+0 0  9990
2 44624   0.1092 302.2896 0003143  38.6484 280.7288  1.00270464 23316
BEIDOU-3 IGSO-3 (C40)   
1 44709U 19073A   26052.03236154 -.00000154  00000+0  00000+0 0  9992
2 44709  54.9969 282.1540 0040269 189.2840 170.7233  1.00272897 23298
BEIDOU-3 M22 (C44)      
1 44793U 19078A   26052.09952425 -.00000034  00000+0  00000+0 0  9999
2 44793  54.0409 303.9146 0007177  34.2499 325.8590  1.86232128 42483
BEIDOU-3 M21 (C43)      
1 44794U 19078B   26053.84968247 -.00000038  00000+0  00000+0 0  9997
2 44794  54.0129 303.8167 0005364  29.2337 330.8529  1.86227804 42524
COSMOS 2544 (759)       
1 44850U 19088A   26055.87585329  .00000028  00000+0  00000+0 0  9990
2 44850  65.5007  77.4788 0015789 258.5181 101.3580  2.13101903 48322
BEIDOU-3 M19 (C41)      
1 44864U 19090A   26056.50734929 -.00000002  00000+0  00000+0 0  9994
2 44864  56.4605  66.4810 0020316 290.7872 247.5186  1.86231104 42157
BEIDOU-3 M20 (C42)      
1 44865U 19090B   26054.08663546 -.00000006  00000+0  00000+0 0  9996
2 44865  56.4598  66.5957 0017606 301.8108 143.1457  1.86231267 42091
BEIDOU-3 G2 (C60)       
1 45344U 20017A   26056.54069762 -.00000147  00000+0  00000+0 0  9999
2 45344   2.6393  45.4324 0002601 295.2651  89.3770  1.00271456 22145
COSMOS 2545 (760)       
1 45358U 20018A   26055.13290572 -.00000047  00000+0  00000+0 0  9993
2 45358  64.4229 316.3952 0008661 251.9262 108.0301  2.13102520 46257
BEIDOU-3 G3 (C61)       
1 45807U 20040A   26056.04750936 -.00000359  00000+0  00000+0 0  9999
2 45807   2.1698  67.0864 0004806 315.9266 259.4728  1.00266465 20945
GPS BIII-3  (PRN 23)    
1 45854U 20041A   26056.30196384 -.00000045  00000+0  00000+0 0  9994
2 45854  56.6011  33.2849 0061344 205.1915 335.9719  2.00560405 41797
GALAXY 30 (WAAS/PRN 135)
1 46114U 20056C   26056.42875778  .00000030  00000+0  00000+0 0  9997
2 46114   0.0141 167.3036 0001941 178.7229 198.5866  1.00269407 20173
COSMOS 2547 (705K)      
1 46805U 20075A   26054.38286331  .00000068  00000+0  00000+0 0  9990
2 46805  64.6000 196.2700 0006493 228.7507 131.1718  2.13100264 41487
GPS BIII-4  (PRN 14)    
1 46826U 20078A   26056.33533068  .00000059  00000+0  00000+0 0  9995
2 46826  54.0040 215.3122 0067941 204.1178 334.1766  2.00565395 39262
GPS BIII-5  (PRN 11)    
1 48859U 21054A   26055.84547390 -.00000088  00000+0  00000+0 0  9999
2 48859  55.2246 336.9783 0024008 232.3249 136.2881  2.00575655 34504
QZS-1R (QZSS/PRN 196)   
1 49336U 21096A   26056.41021102 -.00000260  00000+0  00000+0 0  9990
2 49336  37.2283  81.2356 0746547 269.5444  85.8016  1.00292948 15890
GSAT0223 (GALILEO 27)   
1 49809U 21116A   26048.03988929 -.00000078  00000+0  00000+0 0  9993
2 49809  57.2005 344.9238 0002865 278.1950 264.6358  1.70475508 26130
GSAT0224 (GALILEO 28)   
1 49810U 21116B   26054.89517960 -.00000088  00000+0  00000+0 0  9990
2 49810  57.1984 344.7369 0002182 291.9502 250.7131  1.70475193 26278
COSMOS 2557 (706K)      
1 52984U 22075A   26053.14018637 -.00000043  00000+0  00000+0 0  9996
2 52984  64.3658 318.5411 0012034 283.3616  76.5579  2.13101880 28265
COSMOS 2559 (707K)      
1 54031U 22130A   26053.89806918 -.00000046  00000+0  00000+0 0  9995
2 54031  64.3375 318.6009 0010604 183.2306 176.8140  2.13101105 26250
COSMOS 2564 (761)       
1 54377U 22161A   26055.61869877  .00000055  00000+0  00000+0 0  9996
2 54377  64.7419 196.4450 0009231 208.2730 151.6548  2.13101837 25233
GPS BIII-6  (PRN 28)    
1 55268U 23009A   26056.26919648 -.00000018  00000+0  00000+0 0  9992
2 55268  55.1087 152.9183 0004817 328.1073  26.3068  2.00549548 22991
BEIDOU-3 G4 (C62)       
1 56564U 23066A   26056.48517804 -.00000118  00000+0  00000+0 0  9998
2 56564   0.6624 309.8894 0001676 171.7033   8.4337  1.00271764 10272
NVS-01 (IRNSS-1J)       
1 56759U 23076A   26056.47911135 -.00000345  00000+0  00000+0 0  9991
2 56759   2.4362 248.8908 0008085  39.1359 169.2688  1.00268575  9992
COSMOS 2569 (703K)      
1 57517U 23114A   26054.22394554  .00000023  00000+0  00000+0 0  9990
2 57517  65.2358  76.4630 0012788 290.9452  68.9705  2.13103857 19835
BEIDOU-3 M28 (C50)      
1 58654U 23207A   26055.53814470 -.00000008  00000+0  00000+0 0  9999
2 58654  55.6526  66.1022 0004809 300.2585  59.7320  1.86229600 14746
BEIDOU-3 M26 (C48)      
1 58655U 23207B   26055.87257622 -.00000007  00000+0  00000+0 0  9996
2 58655  55.6550  66.0772 0005679 285.6548  74.3209  1.86229499 14730
GSAT0225 (GALILEO 29)   
1 59598U 24079A   26055.76989149  .00000000  00000+0  00000+0 0  9997
2 59598  55.0441 104.2212 0002482 252.5648  99.8289  1.70474725 11393
GSAT0227 (GALILEO 30)   
1 59600U 24079C   26055.37922177  .00000002  00000+0  00000+0 0  9998
2 59600  55.0394 104.2310 0000531 100.3650 259.7109  1.70474768 11440
GSAT0232 (GALILEO 32)   
1 61182U 24167A   26048.66150565  .00000069  00000+0  00000+0 0  9995
2 61182  55.2225 224.5881 0003600 296.6314 116.1306  1.70443939  8265
GSAT0226 (GALILEO 31)   
1 61183U 24167B   26053.70807522  .00000067  00000+0  00000+0 0  9997
2 61183  55.2211 224.4582 0001789 125.1272 236.2432  1.70473775  8909
BEIDOU-3 M25 (C47)      
1 61186U 24168B   26054.88755289 -.00000044  00000+0  00000+0 0  9999
2 61186  54.5735 306.1814 0004444 315.6845 220.8634  1.86229797  9672
BEIDOU-3 M27 (C49)      
1 61187U 24168C   26055.24211516 -.00000044  00000+0  00000+0 0  9991
2 61187  54.5686 306.1523 0002874  15.4776 173.7699  1.86229933  7158
GPS BIII-7  (PRN 01)    
1 62339U 24242A   26052.43586640 -.00000075  00000+0  00000+0 0  9999
2 62339  54.8966 338.8771 0015347 354.3716 193.6022  2.00569170  8932
NVS-02 (IRNSS-1K)       
1 62850U 25020A   26055.51533504  .00000755  00000+0  43904-3 0  9993
2 62850  20.8473 300.6474 7349496  74.5189 349.7544  2.17697436  8523
QZS-6 (QZSS/PRN 200)    
1 62876U 25023A   26056.04352267 -.00000238  00000+0  00000+0 0  9991
2 62876   0.0495 291.2273 0001969  30.7776 299.0779  1.00271661  3831
COSMOS 2584 (704K)      
1 63130U 25042A   26052.23376002  .00000028  00000+0  00000+0 0  9992
2 63130  65.0163  76.7434 0007887 235.0543 124.9308  2.13103205  7572
GPS BIII-8  (PRN 21)    
1 64202U 25116A   26056.40197765 -.00000045  00000+0  00000+0 0  9995
2 64202  55.1623  35.6289 0008341 324.2675  33.5854  2.00553210  5625
COSMOS 2596 (708K)      
1 65590U 25206B   26055.52548751 -.00000052  00000+0  00000+0 0  9991
2 65590  64.6990 318.9100 0013104 314.5783 168.3643  2.13099956  3517
GSAT0233 (GALILEO 33)   
1 67160U 25302A   26044.50000000 -.00000008  00000+0  00000+0 0  9990
2 67160  54.3935 105.2952 0003011 207.0582 359.4109  1.70474578    20
GSAT0234 (GALILEO 34)   
1 67162U 25302C   26044.50000000 -.00000008  00000+0  00000+0 0  9992
2 67162  54.3967 105.2938 0003081 266.8423 119.7309  1.70475065   127
GPS BIII-9  (PRN 20)    
1 67588U 26017A   26055.51952652 -.00000003  00000+0  00000+0 0  9995
2 67588  55.0130  93.2756 0001206  28.8360 331.2338  2.00560949429359
