SCD 1                   
1 22490U 93009B   26056.43370417  .00000429  00000+0  66570-4 0  9998
2 22490  24.9679 177.5581 0042101  35.5038  18.9505 14.46059159744920
TECHSAT 1B (GO-32)      
1 25397U 98043D   26056.44734362  .00000085  00000+0  56757-4 0  9998
2 25397  99.0012  46.4215 0001662 139.6785 220.4516 14.24402104435425
SCD 2                   
1 25504U 98060A   26056.04311803  .00000419  00000+0  66198-4 0  9995
2 25504  24.9960  43.7253 0016826  18.9591  33.0680 14.45474324444086
DLR-TUBSAT              
1 25757U 99029B   26056.48320253  .00000124  00000+0  42233-4 0  9995
2 25757  98.6650  48.3404 0013687 334.3729  25.6786 14.52391844417031
TERRA                   
1 25994U 99068A   26056.45540577  .00000424  00000+0  95540-4 0  9993
2 25994  97.9621 110.3560 0001840 183.7754 233.7425 14.60999713393290
MAROC-TUBSAT            
1 27004U 01056D   26056.50743526 -.00000019  00000+0  30931-4 0  9996
2 27004  99.7991 231.2834 0020552  69.8815   0.9743 13.70257259210897
AQUA                    
1 27424U 02022A   26056.51145280  .00001028  00000+0  21521-3 0  9994
2 27424  98.4151  23.6568 0000880  49.0455  62.2046 14.61942415266957
IRS-P6 (RESOURCESAT-1)  
1 28051U 03046A   26056.56310419  .00000309  00000+0  11776-3 0  9993
2 28051  98.2072  98.4669 0063331 318.1217 198.5774 14.36109274164501
SHIYAN-1 (SY-1)         
1 28220U 04012A   26056.18618667  .00012416  00000+0  42198-3 0  9993
2 28220  97.8794 127.2023 0006792  63.4593 296.7342 15.30602237193949
AURA                    
1 28376U 04026A   26056.43898324  .00000980  00000+0  20902-3 0  9990
2 28376  98.3288  12.0645 0001062  73.7689 286.3628 14.61114864149895
IRS-P5 (CARTOSAT-1)     
1 28649U 05017A   26056.06260510  .00001353  00000+0  14320-3 0  9995
2 28649  97.5433  84.1726 0002658  84.6434 275.5088 14.90711678127111
SINAH 1                 
1 28893U 05043D   26056.45282423  .00000439  00000+0  92991-4 0  9990
2 28893  98.2663 190.2382 0013268 265.7061  94.2625 14.64056760 84175
RESURS-DK 1             
1 29228U 06021A   26055.90538654  .00002070  00000+0  12423-3 0  9993
2 29228  69.9313 270.0941 0002838 173.4781 186.6422 15.12653726 85595
ARIRANG-2 (KOMPSAT-2)   
1 29268U 06031A   26056.52872766  .00000504  00000+0  10330-3 0  9997
2 29268  97.8297 246.3690 0015701  69.5949  14.1740 14.64576555 45135
LAPAN-TUBSAT            
1 29709U 07001A   26056.53594676  .00000756  00000+0  93468-4 0  9990
2 29709  98.1325  53.2693 0011877 182.8744 177.2404 14.85808332 34579
HAIYANG-1B              
1 31113U 07010A   26056.48125007  .00000112  00000+0  58510-4 0  9999
2 31113  98.3410  42.7108 0013636 167.5261 192.6262 14.30994835984651
COSMO-SKYMED 1          
1 31598U 07023A   26056.49507197  .00002608  00000+0  23524-3 0  9993
2 31598  97.8880 247.4302 0001273  82.8539 277.2826 14.96431665 13089
TERRASAR-X              
1 31698U 07026A   26055.49108985  .00001538  00000+0  76399-4 0  9998
2 31698  97.4470  64.8028 0001889  81.9088 278.2361 15.19148940 36110
WORLDVIEW-1 (WV-1)      
1 32060U 07041A   26056.36153786  .00007939  00000+0  32788-3 0  9999
2 32060  97.3811 177.7224 0002427 169.2069 190.9221 15.24279468 25841
YAOGAN-3                
1 32289U 07055A   26056.55658258  .00002738  00000+0  28763-3 0  9992
2 32289  97.8296  87.5025 0001824  92.1153 268.0274 14.90292161989235
COSMO-SKYMED 2          
1 32376U 07059A   26056.49861817  .00000534  00000+0  73647-4 0  9997
2 32376  97.8853 241.7115 0001279  82.6623 277.4735 14.82167634985458
RADARSAT-2              
1 32382U 07061A   26056.50422102  .00000192  00000+0  91209-4 0  9993
2 32382  98.5821  65.0176 0001176  83.2613 276.8703 14.29984497949996
CARTOSAT-2A             
1 32783U 08021A   26056.49647486  .00000892  00000+0  12718-3 0  9991
2 32783  97.7803 108.9432 0013147 111.8818 248.3793 14.79074291962298
HUANJING 1A (HJ-1A)     
1 33320U 08041A   26056.56333861  .00000949  00000+0  12068-3 0  9999
2 33320  97.6622  46.7862 0019879 140.9435 219.3219 14.83671593941859
HUANJING 1B (HJ-1B)     
1 33321U 08041B   26056.48413244  .00001832  00000+0  22885-3 0  9995
2 33321  97.6472  50.2071 0036034 187.6378 172.4292 14.83069688941857
GEOEYE 1                
1 33331U 08042A   26056.45887219  .00000493  00000+0  10135-3 0  9998
2 33331  98.1231 131.8033 0004654  59.8404 300.3259 14.64749251933793
THEOS                   
1 33396U 08049A   26056.50710481  .00000316  00000+0  16815-3 0  9993
2 33396  98.5728 117.3465 0001055  87.7202 272.4096 14.20115307902116
COSMO-SKYMED 3          
1 33412U 08054A   26056.56210041  .00004343  00000+0  30083-3 0  9998
2 33412  97.8425 273.2387 0014834 286.6650  73.2948 15.06112721940131
YAOGAN-4                
1 33446U 08061A   26056.37223950  .00001253  00000+0  16079-3 0  9991
2 33446  97.9237 350.7767 0015844  76.0898 284.2076 14.82933602929090
GOSAT (IBUKI)           
1 33492U 09002A   26056.31984220  .00000199  00000+0  43528-4 0  9994
2 33492  98.0764 168.8850 0001403  88.5698 271.5668 14.67546570915055
DEIMOS-1                
1 35681U 09041A   26056.47044729  .00000649  00000+0  10327-3 0  9997
2 35681  97.7238 218.6350 0001640 136.7888 223.3451 14.75091787890419
DUBAISAT-1              
1 35682U 09041B   26056.36132370  .00001249  00000+0  19362-3 0  9991
2 35682  97.9854 190.9794 0011616  72.7395 287.5084 14.74865147888617
OCEANSAT-2              
1 35931U 09051A   26056.53774845 -.00000108  00000+0 -48402-4 0  9990
2 35931  98.2266  54.5738 0016702 187.3238 172.7687 13.99635884863715
WORLDVIEW-2 (WV-2)      
1 35946U 09055A   26056.47976211  .00000133  00000+0  58533-4 0  9996
2 35946  98.4718 131.5181 0004349 178.3401 181.7802 14.37904683859598
SMOS                    
1 36036U 09059A   26056.50923997  .00000302  00000+0  11018-3 0  9992
2 36036  98.4420 245.4625 0001112  80.9054 279.2259 14.39749545857384
YAOGAN-7                
1 36110U 09069A   26056.24443859  .00000710  00000+0  10556-3 0  9990
2 36110  98.0231 302.7130 0025642  42.5865 317.7328 14.77867795873090
TANDEM-X                
1 36605U 10030A   26055.55695774  .00000782  00000+0  40413-4 0  9992
2 36605  97.4469  64.8650 0001720  87.2398 272.9034 15.19148168869540
CARTOSAT-2B             
1 36795U 10035A   26056.61629263  .00000724  00000+0  10561-3 0  9991
2 36795  97.8253 108.1873 0011047 187.3227 172.7825 14.78646106843366
YAOGAN-10               
1 36834U 10038A   26056.52816288  .00002691  00000+0  32208-3 0  9990
2 36834  97.9100  80.7914 0001690  89.9359  63.4804 14.84960205840635
COSMO-SKYMED 4          
1 37216U 10060A   26056.37624086  .00000034  00000+0  10857-4 0  9992
2 37216  97.8857 241.5908 0001281  82.4428 277.6931 14.82163529828008
RESOURCESAT-2           
1 37387U 11015A   26056.46459315 -.00000076  00000+0 -14465-4 0  9990
2 37387  98.7749 124.6278 0005830 171.3219 188.8059 14.21486087770301
HAIYANG-2A              
1 37781U 11043A   26056.52073672  .00000148  00000+0  18929-3 0  9990
2 37781  99.3418  61.3120 0000516 282.7021  77.4072 13.78651615731291
RASAT                   
1 37791U 11044D   26056.54819803  .00000535  00000+0  10160-3 0  9997
2 37791  98.0563 149.6764 0020506 182.8511 290.5798 14.68035545776805
SRMSAT                  
1 37841U 11058D   26056.03605377  .00000426  00000+0  87806-4 0  9992
2 37841  19.9730  18.2874 0011878  51.0444  17.0147 14.11542222741957
PLEIADES 1A             
1 38012U 11076F   26056.52081226  .00000248  00000+0  62979-4 0  9994
2 38012  98.1695 133.0927 0001582  97.8095  18.2658 14.58588060755713
ZIYUAN 1-02C (ZY 1-02C) 
1 38038U 11079A   26056.56318583  .00000576  00000+0  20413-3 0  9998
2 38038  98.4194 126.1572 0005256 284.3759 207.4341 14.38109805743160
ARIRANG-3 (KOMPSAT-3)   
1 38338U 12025B   26056.48666605  .00001186  00000+0  24530-3 0  9997
2 38338  98.1150  15.9589 0006771 101.7158 258.4804 14.62071254735022
EXACTVIEW-1 (ADS-1B)    
1 38709U 12039C   26056.31567965  .00000145  00000+0  81738-4 0  9993
2 38709  98.9632 171.2703 0011714 131.1490 229.0701 14.24945133706774
SPOT 6                  
1 38755U 12047A   26056.51373152  .00000275  00000+0  69168-4 0  9995
2 38755  98.2242 125.0714 0001377  97.3346 262.8010 14.58530807716775
PLEIADES 1B             
1 39019U 12068A   26056.46442626  .00000342  00000+0  83302-4 0  9990
2 39019  98.2033 133.0181 0001591  93.6689 266.4693 14.58571893704562
GOKTURK 2               
1 39030U 12073A   26056.52397840  .00000752  00000+0  11771-3 0  9998
2 39030  97.6891 259.5010 0001435  58.0463 302.0886 14.75415833708045
LANDSAT 8               
1 39084U 13008A   26056.50597936  .00000354  00000+0  88546-4 0  9995
2 39084  98.1944 128.4299 0001271  90.4881 269.6463 14.57117910681633
SARAL                   
1 39086U 13009A   26056.52015976  .00000103  00000+0  53637-4 0  9994
2 39086  98.5547 244.4886 0000849 231.0417 129.0691 14.32823615679613
GAOFEN-1                
1 39150U 13018A   26056.51774814  .00001122  00000+0  16802-3 0  9992
2 39150  97.9196 130.8079 0015993 266.5799  93.3581 14.76525174691760
VNREDSAT 1              
1 39160U 13021B   26056.47927824  .00000735  00000+0  14551-3 0  9991
2 39160  97.9241 114.0948 0001580  92.1211 268.0173 14.65054121683935
ARIRANG-5 (KOMPSAT-5)   
1 39227U 13042A   26056.49859316  .00002483  00000+0  18160-3 0  9992
2 39227  97.6201 244.7503 0003857 136.9596 223.1932 15.04516933687063
SKYSAT-A                
1 39418U 13066C   26056.39473204  .00002859  00000+0  16823-3 0  9998
2 39418  97.3985 109.3194 0021147 345.3502  14.7113 15.12248086671583
DUBAISAT-2              
1 39419U 13066D   26056.52429168  .00006801  00000+0  43075-3 0  9994
2 39419  97.4519  49.7016 0013081  60.8670 299.3867 15.09204823669548
GPM-CORE                
1 39574U 14009C   26056.40816991  .00013230  00000+0  28886-3 0  9992
2 39574  64.9749 322.6174 0012486 263.1793  96.7927 15.44405483680547
SENTINEL-1A             
1 39634U 14016A   26056.52751928  .00000231  00000+0  58768-4 0  9998
2 39634  98.1823  65.6734 0001374  84.2866 275.8491 14.59199757633733
KAZEOSAT 1              
1 39731U 14024A   26056.51875111  .00000207  00000+0  75991-4 0  9995
2 39731  98.3303 131.7037 0001148  79.7628 280.3691 14.42028525622468
ALOS-2                  
1 39766U 14029A   26056.54496274  .00001677  00000+0  23134-3 0  9993
2 39766  97.9194 155.3173 0001619  97.9327 262.2068 14.79487414635077
KAZEOSAT 2              
1 40010U 14033A   26056.54125784  .00001159  00000+0  14069-3 0  9999
2 40010  97.5494 261.9923 0008097 338.2782  21.8089 14.85315979632386
HODOYOSHI-4             
1 40011U 14033B   26056.47155865  .00001711  00000+0  19226-3 0  9999
2 40011  97.5446 246.6958 0022863 318.5980  41.3504 14.87791961632199
DEIMOS-2                
1 40013U 14033D   26056.50103532  .00000471  00000+0  50143-4 0  9995
2 40013  97.5999 294.8287 0001676  50.0701 310.0666 14.93349308621051
HODOYOSHI-3             
1 40015U 14033F   26056.41819902  .00001195  00000+0  14454-3 0  9990
2 40015  97.6282 224.0489 0033047   5.2045 354.9507 14.85096342631036
SPOT 7                  
1 40053U 14034A   26056.47198184  .00000563  00000+0  12447-3 0  9999
2 40053  98.0769 121.7834 0001214  99.9845 260.1493 14.60845128620823
SKYSAT-B                
1 40072U 14037D   26056.42119463  .00001765  00000+0  20059-3 0  9994
2 40072  98.3708   9.1308 0004294 286.8582  73.2162 14.87667593629340
WORLDVIEW-3 (WV-3)      
1 40115U 14048A   26056.51063355  .00000973  00000+0  12091-3 0  9999
2 40115  97.8658 132.8635 0001061  24.7311 335.3954 14.84801802625337
GAOFEN-2                
1 40118U 14049A   26056.48200008  .00001103  00000+0  15019-3 0  9996
2 40118  98.0249 120.7390 0006235 228.4774 131.5904 14.80751826622702
YAOGAN-21               
1 40143U 14053A   26056.52508595  .00008490  00000+0  34498-3 0  9994
2 40143  97.1646 101.5941 0009886 122.5762 237.6432 15.24748695637930
YAOGAN-22               
1 40275U 14063A   26056.39053619 -.00000046  00000+0  16262-5 0  9999
2 40275 100.7513 205.8885 0006808  84.1473 276.0414 13.15526322545112
ASNARO                  
1 40298U 14070A   26056.47777432  .00013576  00000+0  64163-3 0  9999
2 40298  97.3533 135.5572 0006602 180.6417 179.4811 15.19499912627044
YAOGAN-24               
1 40310U 14072A   26056.51008694  .00000568  00000+0  89641-4 0  9994
2 40310  98.1281 193.0263 0011978 261.1293  98.8560 14.76198685607243
CBERS 4                 
1 40336U 14079A   26056.51456060  .00000220  00000+0  91481-4 0  9993
2 40336  98.3509 116.9169 0001083  52.2375 307.8909 14.35409323587933
YAOGAN-26               
1 40362U 14088A   26056.54474689  .00009632  00000+0  22342-3 0  9997
2 40362  97.0670  59.7340 0007430  92.7718 267.4381 15.42565808620465
SMAP                    
1 40376U 15003A   26056.48985604  .00000523  00000+0  11039-3 0  9998
2 40376  98.1310  65.1496 0001068 111.3427 248.7889 14.63320347591283
KOMPSAT-3A              
1 40536U 15014A   26056.50913559  .00022037  00000+0  39094-3 0  9996
2 40536  97.6856  40.2339 0062468 222.0033 137.6418 15.48039659604505
SENTINEL-2A             
1 40697U 15028A   26055.41060201  .00000163  00000+0  78762-4 0  9997
2 40697  98.5674 131.9100 0001127  98.4036 261.7275 14.30814661557600
GAOFEN-8                
1 40701U 15030A   26056.54909774  .00020267  00000+0  47795-3 0  9996
2 40701  97.6935 243.5291 0009182 232.7256 127.3154 15.41896663594220
CARBONITE 1 (CBNT-1)    
1 40718U 15032D   26056.47800516  .00002423  00000+0  30290-3 0  9998
2 40718  97.6458 239.2688 0013444 304.4576  55.5367 14.83153507572781
YAOGAN-27               
1 40878U 15040A   26056.50589390 -.00000226  00000+0 -48491-3 0  9995
2 40878 100.1096  47.7720 0008805 110.0913 250.1149 13.16063254502975
GAOFEN-9 01             
1 40894U 15047A   26056.51384532  .00001021  00000+0  13221-3 0  9997
2 40894  97.6436  97.2139 0028365 144.0975 216.2153 14.82645729563649
YAOGAN-28               
1 41026U 15064A   26056.50341203  .00007101  00000+0  28057-3 0  9999
2 41026  97.2874 197.2894 0010312 220.7703 139.2765 15.25756130573643
YAOGAN-29               
1 41038U 15069A   26056.51448317  .00001080  00000+0  13962-3 0  9991
2 41038  98.0164  84.9111 0002582  57.4837 302.6626 14.82982494554078
KENT RIDGE 1            
1 41167U 15077B   26056.22135501  .00004302  00000+0  14912-3 0  9995
2 41167  14.9811  18.2018 0008329 100.3750 259.7511 15.22331131564000
GAOFEN-4                
1 41194U 15083A   26056.47443133 -.00000342  00000+0  00000+0 0  9992
2 41194   0.3597  83.8114 0003754  88.6166 259.3767  1.00272449 37406
JASON-3                 
1 41240U 16002A   26056.46865484 -.00000042  00000+0  78272-4 0  9990
2 41240  66.0446   0.7124 0007896 276.5666  83.4454 12.87627830472860
SENTINEL-3A             
1 41335U 16011A   26056.49962760  .00000106  00000+0  61633-4 0  9996
2 41335  98.6255 125.4625 0001227 102.1274 258.0044 14.26736902522133
ZIYUAN 3-02 (ZY 3-02)   
1 41556U 16033A   26056.50715788  .00006451  00000+0  29049-3 0  9996
2 41556  97.3922 134.3818 0011865 345.8188  14.2713 15.21351019541007
CARTOSAT-2C             
1 41599U 16040A   26056.61837353  .00003811  00000+0  18401-3 0  9993
2 41599  97.4637 118.0476 0010010 161.3891 198.7712 15.19228532536775
SKYSAT-C1               
1 41601U 16040C   26055.85321995  .00008708  00000+0  26508-3 0  9999
2 41601  96.9729  93.7296 0004308  78.9862 281.1866 15.34211145540634
LAPAN-A3                
1 41603U 16040E   26056.48682647  .00004148  00000+0  13531-3 0  9991
2 41603  97.1478  56.3823 0012216  61.7177 298.5297 15.32255048537709
GAOFEN-3                
1 41727U 16049A   26056.52432839  .00000156  00000+0  60401-4 0  9992
2 41727  98.4058  65.9791 0001550  99.8545 260.2820 14.42212854502555
SKYSAT-C4               
1 41771U 16058B   26056.02662954  .00014240  00000+0  30498-3 0  9990
2 41771  96.9314  82.7066 0001320  58.7027 301.4352 15.44868014528136
SKYSAT-C5               
1 41772U 16058C   26056.36756431  .00008605  00000+0  26364-3 0  9997
2 41772  97.0647 101.9640 0002045  86.1997 273.9480 15.34018890526609
SKYSAT-C2               
1 41773U 16058D   26056.03356305  .00010589  00000+0  27322-3 0  9997
2 41773  97.0306  82.4902 0005438  96.2010 263.9857 15.39315404527786
SKYSAT-C3               
1 41774U 16058E   26056.08204842  .00017966  00000+0  34889-3 0  9993
2 41774  96.9206  91.4925 0001605  89.2927 270.8509 15.47683771528742
ALSAT-1B                
1 41785U 16059C   26056.50496016  .00000472  00000+0  82409-4 0  9995
2 41785  97.7811  70.0728 0008200 219.1345 140.9271 14.72172555504146
PATHFINDER 1            
1 41787U 16059E   26056.45738501  .00000754  00000+0  14048-3 0  9995
2 41787  97.8173  60.7877 0027934 199.8152 160.1970 14.67492437503323
SCATSAT 1               
1 41790U 16059H   26056.13979815  .00001240  00000+0  17070-3 0  9998
2 41790  98.1334 118.7076 0053764 248.5739 110.9732 14.79215113 85026
GOKTURK 1A              
1 41875U 16073A   26056.54194744  .00000315  00000+0  71082-4 0  9999
2 41875  98.1373 312.8903 0001412  78.3206 281.8155 14.62733990492502
RESOURCESAT-2A          
1 41877U 16074A   26056.51449273  .00000182  00000+0  10304-3 0  9990
2 41877  98.7624 130.8927 0002942  63.4599 296.6879 14.21615461478432
CARTOSAT-2D             
1 41948U 17008A   26056.52030767  .00005798  00000+0  27824-3 0  9995
2 41948  97.4258 117.8279 0004283 269.7018  90.3726 15.19246861500621
SENTINEL-2B             
1 42063U 17013A   26056.45923424  .00000104  00000+0  56237-4 0  9990
2 42063  98.5675 132.8289 0001090  90.7509 269.3799 14.30814918468664
CARTOSAT-2E             
1 42767U 17036C   26056.47125133  .00004206  00000+0  20249-3 0  9999
2 42767  97.4427 118.0323 0003037 345.2923  14.8223 15.19304022481189
FORMOSAT-5              
1 42920U 17049A   26056.46543042  .00000186  00000+0  58230-4 0  9991
2 42920  98.2334 134.2363 0012188  71.0086 289.2428 14.50813729450477
SENTINEL-5P             
1 42969U 17064A   26056.41076270  .00000066  00000+0  52131-4 0  9991
2 42969  98.7866 359.3663 0001108  80.8424 279.2877 14.19545676433704
SKYSAT-C11              
1 42987U 17068A   26056.40157200  .00026876  00000+0  45463-3 0  9993
2 42987  97.4178 200.9885 0000736  85.7397 274.3939 15.51558388465871
SKYSAT-C10              
1 42988U 17068B   26056.32585186  .00011347  00000+0  36524-3 0  9998
2 42988  97.4310 192.3838 0001381  85.6863 274.4536 15.32384308465216
SKYSAT-C9               
1 42989U 17068C   26056.35655748  .00014512  00000+0  38430-3 0  9999
2 42989  97.4239 192.3483 0009372 174.1719 185.9637 15.38425487465549
SKYSAT-C8               
1 42990U 17068D   26056.45755530  .00011644  00000+0  35010-3 0  9996
2 42990  97.4331 191.9123 0001267 106.3952 253.7430 15.34553487465162
SKYSAT-C7               
1 42991U 17068E   26056.31654492  .00012150  00000+0  36740-3 0  9991
2 42991  97.4339 192.7531 0007204 141.5110 218.6648 15.34337550465204
SKYSAT-C6               
1 42992U 17068F   26056.36173416  .00010527  00000+0  33887-3 0  9994
2 42992  97.4375 193.1163 0003293 143.5939 216.5527 15.32399105465188
CARTOSAT-2F             
1 43111U 18004A   26056.50347370  .00006260  00000+0  29964-3 0  9997
2 43111  97.4190 117.8811 0000707 269.4573  90.6580 15.19313910450379
GAOFEN-1 02             
1 43259U 18031A   26056.54442091  .00001309  00000+0  19561-3 0  9991
2 43259  98.0671 119.3116 0003274  24.1031 336.0331 14.76456936426221
GAOFEN-1 03             
1 43260U 18031B   26056.52253791  .00000818  00000+0  12509-3 0  9997
2 43260  98.0667 119.1598 0004142  79.7727 280.3949 14.76449809426219
GAOFEN-1 04             
1 43262U 18031D   26056.49824127  .00000875  00000+0  13316-3 0  9992
2 43262  98.0671 119.3130 0002046  95.3472 264.7970 14.76452419426202
SENTINEL-3B             
1 43437U 18039A   26056.19224448  .00000096  00000+0  57746-4 0  9992
2 43437  98.6257 125.3066 0000716 120.2244 239.9008 14.26739661408156
GAOFEN-5 01             
1 43461U 18043A   26056.46355918  .00000432  00000+0  99186-4 0  9999
2 43461  98.4443  25.7886 0002995  74.9321 285.2210 14.60507397415382
GAOFEN-6                
1 43484U 18048A   26056.53058522  .00000596  00000+0  92327-4 0  9999
2 43484  97.7896 123.2390 0012266 172.1064 188.0341 14.76570868416917
GAOFEN-11 01            
1 43585U 18063A   26056.48922183  .00021771  00000+0  36529-3 0  9994
2 43585  97.1441 123.8808 0004974  44.2777 315.8873 15.51809724423004
ICESAT-2                
1 43613U 18070A   26056.51334557  .00002990  00000+0  10866-3 0  9998
2 43613  91.9996 260.8919 0002198 139.1780 220.9634 15.28233121415404
HYSIS                   
1 43719U 18096A   26056.48781810  .00001829  00000+0  25691-3 0  9999
2 43719  97.9964 124.0507 0001645 106.7136 253.4256 14.78624647390917
KAZSTSAT                
1 43783U 18099AB  26056.40809453  .00000523  00000+0  47010-4 0  9999
2 43783  97.4440  93.3412 0008139  50.8759 309.3188 14.99590850394550
SAUDISAT 5A             
1 43831U 18102A   26056.53408216  .00006078  00000+0  23353-3 0  9998
2 43831  97.3219 120.2874 0010508 161.3572 198.8054 15.26745838398638
SAUDISAT 5B             
1 43833U 18102C   26056.50834813  .00005606  00000+0  21356-3 0  9990
2 43833  97.3313 123.1327 0011153 164.3206 195.8380 15.27060945398745
GAOFEN-10R              
1 44622U 19066A   26056.48715944  .00001509  00000+0  19190-3 0  9998
2 44622  98.0377   9.3439 0007521 140.0780 220.0987 14.83102331345823
CARTOSAT-3              
1 44804U 19081A   26056.51816844  .00004847  00000+0  23260-3 0  9993
2 44804  97.4451 120.1024 0012959 179.4323 180.6929 15.19270215346514
GAOFEN-12 01            
1 44819U 19082A   26056.48834145  .00000486  00000+0  70405-4 0  9999
2 44819  97.8141  65.8080 0002232  71.3736 288.7719 14.80347663337569
CSG-1                   
1 44873U 19092A   26056.52394797  .00000547  00000+0  75280-4 0  9993
2 44873  97.8855 241.7380 0001353  87.7713 272.3654 14.82153279334933
NEMO-HD                 
1 46277U 20061F   26056.48751500  .00010514  00000+0  24705-3 0  9995
2 46277  97.2074 119.6774 0002644  93.8435 266.3115 15.42183835304753
SENTINEL-6A             
1 46984U 20086A   26056.28077259 -.00000053  00000+0  32864-4 0  9991
2 46984  66.0439   7.4830 0007845 270.7946  89.2170 12.80929480245991
GAOFEN-12 02            
1 48079U 21026A   26056.48751958  .00000498  00000+0  72526-4 0  9991
2 48079  97.9908  55.1460 0003695 224.7059 135.3855 14.80185789265234
PLEIADES NEO 3          
1 48268U 21034A   26056.48691682 -.00000475  00000+0 -53802-4 0  9990
2 48268  97.8927 132.8563 0001263  90.7837 269.3520 14.81670808261117
PLEIADES NEO 4          
1 49070U 21073E   26056.52066993 -.00000632  00000+0 -73661-4 0  9991
2 49070  97.8929 132.8852 0001408  89.8849 270.2525 14.81672825244832
LANDSAT 9               
1 49260U 21088A   26056.19706508  .00000354  00000+0  88564-4 0  9991
2 49260  98.1965 128.1831 0001154  86.7944 273.3387 14.57111217234691
CSG-2                   
1 51444U 22008A   26056.49018316  .00000705  00000+0  95061-4 0  9997
2 51444  97.8858 241.7022 0001366  79.3184 280.8183 14.82163557220041
GAOFEN-12 03            
1 52912U 22069A   26056.56141843  .00000563  00000+0  81435-4 0  9997
2 52912  97.8421 307.1701 0001936 104.8132 255.3295 14.79818233198105
SWOT                    
1 54754U 22173A   26056.51962877  .00000087  00000+0  60528-4 0  9993
2 54754  77.6114 186.0454 0000454 295.9435  64.1670 14.00167710163529
GAOFEN-12 04            
1 57654U 23123A   26056.52361400  .00001221  00000+0  16847-3 0  9992
2 57654  97.9131 336.1654 0001750  81.1473 278.9937 14.79961333136117
PARS 1                  
1 59065U 24039Q   26056.49006159  .00012042  00000+0  27416-3 0  9997
2 59065  97.4733  34.1694 0011009 147.3474 212.8456 15.43049230111404
RESURS-P 4              
1 59371U 24061A   26056.53842359  .00003915  00000+0  12602-3 0  9997
2 59371  97.2632   6.4156 0003008  73.0156 287.1416 15.32801507106661
LEGION 1                
1 59625U 24081A   26056.46992527  .00004423  00000+0  22482-3 0  9998
2 59625  97.5093 135.4733 0005973  57.2265 302.9543 15.17367889100607
LEGION 2                
1 59626U 24081B   26056.50208901  .00004774  00000+0  24218-3 0  9998
2 59626  97.5097 135.5975 0007583  39.6003 320.5783 15.17387627100619
ALOS-4 (DAICHI-4)       
1 60182U 24123A   26056.56431854  .00001410  00000+0  19560-3 0  9993
2 60182  97.9201 155.3395 0001438 100.8383 259.2991 14.79468212 89375
LEGION 3                
1 60452U 24146A   26056.09209380  .00003663  00000+0  20072-3 0  9995
2 60452  45.0008 271.4810 0013814 253.6087 106.3273 15.15985897 85011
LEGION 4                
1 60453U 24146B   26056.35426559  .00005036  00000+0  27065-3 0  9999
2 60453  45.0039   1.9239 0010254  26.8090 333.3317 15.16036904 83900
SENTINEL-2C             
1 60989U 24157A   26056.21452426  .00000114  00000+0  60106-4 0  9998
2 60989  98.5641 132.6075 0000812  90.4767 269.6509 14.30819997 76972
IONOSFERA-M 1           
1 61735U 24199A   26056.51540109  .00000023  00000+0  30026-4 0  9990
2 61735  98.7344 290.7650 0002080  93.8424 266.2992 14.22732554111822
IONOSFERA-M 2           
1 61736U 24199B   26056.47959473  .00000019  00000+0  28221-4 0  9993
2 61736  98.7343 290.6412 0000437  35.4941 324.6266 14.22734845114941
BIOMASS                 
1 63772U 25090A   26056.48451155  .00000277  00000+0  57354-4 0  9996
2 63772  98.0736 245.4082 0001400  87.0851 273.0513 14.67533169 44306
GOSAT-GW (IBUKI GW)     
1 64694U 25141A   26056.50904884 -.00000039  00000+0  15715-5 0  9995
2 64694  98.0492 355.6934 0001430  85.6502 274.4866 14.67553157 35461
IONOSFERA-M 3           
1 64876U 25155A   26056.46766868  .00000061  00000+0  47615-4 0  9992
2 64876  98.5898  21.2636 0001638 137.7127 222.4178 14.21462931 30536
IONOSFERA-M 4           
1 64877U 25155B   26056.50266350  .00000069  00000+0  50988-4 0  9994
2 64877  98.5897  21.2163 0001396 114.7811 245.3512 14.21464592 30538
MICROCARB               
1 64899U 25156A   26056.21348955  .00000637  00000+0  10873-3 0  9998
2 64899  97.9909 135.3303 0014970 269.8001  90.1491 14.72196913 31490
CO3D 3                  
1 64900U 25156B   26056.48636637  .00005254  00000+0  24564-3 0  9999
2 64900  97.4328 136.7823 0001182 176.7331 183.3913 15.20204019 32562
CO3D 4                  
1 64901U 25156C   26056.48651706  .00005080  00000+0  23756-3 0  9993
2 64901  97.4327 136.7825 0000395 321.0133  39.1073 15.20209450 32563
CO3D 2                  
1 64902U 25156D   26056.51899926  .00003652  00000+0  17176-3 0  9998
2 64902  97.4328 136.7134 0001182 148.3987 211.7320 15.20203077 32562
CO3D 1                  
1 64903U 25156E   26056.51915016  .00005367  00000+0  25083-3 0  9999
2 64903  97.4327 136.7135 0000976 159.0313 201.0962 15.20208827 32567
SENTINEL-6B             
1 66514U 25264A   26056.12495476 -.00000053  00000+0  33157-4 0  9999
2 66514  66.0440   7.9328 0008023 270.6703  89.3393 12.80930480 12813
CSG-3                   
1 67304U 26001A   26056.53662485  .00000417  00000+0  58942-4 0  9990
2 67304  97.8855 241.7502 0001370  90.4958 269.6412 14.82157372  7929
