DMSP 5D-3 F16 (USA 172) 
1 28054U 03048A   26056.49266789  .00000131  00000+0  92272-4 0  9994
2 28054  99.0004  79.5274 0008202 102.9086  68.9118 14.14456592153693
METEOSAT-9 (MSG-2)      
1 28912U 05049B   26056.10592295  .00000118  00000+0  00000+0 0  9990
2 28912   9.1074  55.2514 0002174 213.1434 330.3439  1.00273345  5879
DMSP 5D-3 F17 (USA 191) 
1 29522U 06050A   26056.51539394  .00000154  00000+0  10187-3 0  9998
2 29522  98.7412  65.3584 0010444  21.2715 338.8891 14.14957487996627
FENGYUN 3A              
1 32958U 08026A   26056.47086318  .00000090  00000+0  63103-4 0  9994
2 32958  98.6781 359.4583 0009840  89.6343 270.5961 14.19541967919555
GOES 14                 
1 35491U 09033A   26056.42286441  .00000125  00000+0  00000+0 0  9993
2 35491   1.3998  84.5200 0001937 286.7067 141.8605  1.00120511  5471
DMSP 5D-3 F18 (USA 210) 
1 35951U 09057A   26056.47793185  .00000274  00000+0  16500-3 0  9994
2 35951  98.8942  37.5500 0010486 203.7302 156.3389 14.14826805843796
EWS-G2 (GOES 15)        
1 36411U 10008A   26056.46611128  .00000013  00000+0  00000+0 0  9994
2 36411   0.9911  85.2900 0001484  33.8316 267.5513  1.00269618 58513
COMS 1                  
1 36744U 10032A   26056.47885134 -.00000353  00000+0  00000+0 0  9999
2 36744   4.5179  76.9771 0001051 260.0122 118.8846  1.00269925 49978
FENGYUN 3B              
1 37214U 10059A   26056.58555613  .00000127  00000+0  89279-4 0  9997
2 37214  98.9792 102.0497 0022754 141.1022  13.0078 14.14813640791645
SUOMI NPP               
1 37849U 11061A   26056.47886576  .00000072  00000+0  55098-4 0  9999
2 37849  98.7854 358.1796 0000678 331.1595  28.9544 14.19539546742597
METEOSAT-10 (MSG-3)     
1 38552U 12035B   26056.39489245 -.00000012  00000+0  00000+0 0  9999
2 38552   4.4061  61.4881 0002377 285.1358 310.9474  1.00275485 49732
METOP-B                 
1 38771U 12049A   26056.40818626  .00000104  00000+0  67639-4 0  9995
2 38771  98.6671 110.0593 0001438 329.5056  30.6037 14.21440063697387
INSAT-3D                
1 39216U 13038B   26056.47911135 -.00000347  00000+0  00000+0 0  9999
2 39216   1.6366  84.0118 0002275 228.2278 145.0527  1.00271379 45962
FENGYUN 3C              
1 39260U 13052A   26056.51974966  .00000114  00000+0  79240-4 0  9998
2 39260  98.4871  35.5899 0014474 349.4969  10.5901 14.15724185642761
METEOR-M 2              
1 40069U 14037A   26056.50558969  .00000150  00000+0  87706-4 0  9997
2 40069  98.5008  36.2673 0006125  12.6900 347.4431 14.21422604603450
HIMAWARI-8              
1 40267U 14060A   26056.48136468 -.00000283  00000+0  00000+0 0  9991
2 40267   0.0094 130.2763 0001108 159.6206 179.3837  1.00271422 41647
FENGYUN 2G              
1 40367U 14090A   26056.54433764 -.00000311  00000+0  00000+0 0  9993
2 40367   5.3545  74.1721 0002183 153.5768 223.1791  1.00277106 40884
METEOSAT-11 (MSG-4)     
1 40732U 15034A   26056.31271058  .00000055  00000+0  00000+0 0  9993
2 40732   2.9198  71.7266 0001795 269.8709 295.7070  1.00263787  6098
ELEKTRO-L 2             
1 41105U 15074A   26056.37927089 -.00000125  00000+0  00000+0 0  9999
2 41105   6.4111  71.9001 0003510 232.2064 333.1740  1.00270801 37383
INSAT-3DR               
1 41752U 16054A   26056.46819131 -.00000083  00000+0  00000+0 0  9997
2 41752   0.1032  90.9478 0013651 188.8827 118.0043  1.00271062 34690
HIMAWARI-9              
1 41836U 16064A   26056.48136468 -.00000282  00000+0  00000+0 0  9999
2 41836   0.0343 231.9172 0001306 126.9748 110.4697  1.00270872 34097
GOES 16                 
1 41866U 16071A   26056.43274447 -.00000097  00000+0  00000+0 0  9999
2 41866   0.1463  91.0841 0002785 209.1009 266.1846  1.00271058 33987
FENGYUN 4A              
1 41882U 16077A   26056.47798468 -.00000365  00000+0  00000+0 0  9999
2 41882   2.0361  81.5163 0006450 133.7128 235.8131  1.00264961 33818
CYGFM05                 
1 41884U 16078A   26056.02695446  .00020149  00000+0  33059-3 0  9990
2 41884  34.9578 280.5274 0006027 171.2266 188.8563 15.51459806511292
CYGFM04                 
1 41885U 16078B   26055.97494355  .00024835  00000+0  36539-3 0  9992
2 41885  34.9321 253.3840 0005570 205.0666 154.9787 15.54435754511480
CYGFM02                 
1 41886U 16078C   26055.95729435  .00026042  00000+0  35556-3 0  9991
2 41886  34.9408 250.6562 0006568 204.7836 155.2574 15.56444120511624
CYGFM01                 
1 41887U 16078D   26056.05766728  .00020080  00000+0  32458-3 0  9994
2 41887  34.9410 282.1810 0005730 161.6447 198.4483 15.51875962511246
CYGFM08                 
1 41888U 16078E   26055.98550552  .00021590  00000+0  33082-3 0  9993
2 41888  34.9432 264.6921 0007410 188.4016 171.6584 15.53330378511474
CYGFM07                 
1 41890U 16078G   26055.95767397  .00022410  00000+0  33513-3 0  9991
2 41890  34.9448 253.4054 0006124 210.8601 149.1763 15.54002620511496
CYGFM03                 
1 41891U 16078H   26055.92843710  .00022505  00000+0  33821-3 0  9990
2 41891  34.9403 255.5736 0005357 194.0246 166.0329 15.53872613511462
FENGYUN 3D              
1 43010U 17072A   26056.51426131  .00000000  00000+0  21904-4 0  9996
2 43010  99.0009  28.9909 0002128  36.7338 323.3983 14.19710697429143
NOAA 20 (JPSS-1)        
1 43013U 17073A   26056.42298637  .00000072  00000+0  54916-4 0  9996
2 43013  98.7676 356.9333 0000627 152.1387 207.9823 14.19532419428611
GOES 17                 
1 43226U 18022A   26056.48377965 -.00000190  00000+0  00000+0 0  9997
2 43226   0.6492  87.7069 0002531 213.0533 299.2504  1.00270605 29301
FENGYUN 2H              
1 43491U 18050A   26056.54043762 -.00000135  00000+0  00000+0 0  9993
2 43491   2.7410  80.4463 0002144 172.2364 176.3015  1.00272742 28310
METOP-C                 
1 43689U 18087A   26056.43301920  .00000101  00000+0  65933-4 0  9996
2 43689  98.6794 118.0124 0002081 117.1863 242.9526 14.21492395378952
GEO-KOMPSAT-2A          
1 43823U 18100A   26056.40761102  .00000000  00000+0  00000+0 0  9998
2 43823   0.0216  95.4819 0001038 306.8546  27.9449  1.00271117 26509
METEOR-M2 2             
1 44387U 19038A   26056.48168528  .00000263  00000+0  13361-3 0  9995
2 44387  98.9074  42.1669 0001519  25.4207 334.7046 14.24328920345395
ARKTIKA-M 1             
1 47719U 21016A   26053.84774794 -.00000141  00000+0  00000+0 0  9999
2 47719  63.1993  73.9988 7239159 269.4113  15.2414  2.00621828 36495
FENGYUN 3E              
1 49008U 21062A   26056.51117918 -.00000008  00000+0  16903-4 0  9995
2 49008  98.7515  61.1620 0002643  63.3835 296.7612 14.19891420240735
GOES 18                 
1 51850U 22021A   26056.42633110  .00000090  00000+0  00000+0 0  9992
2 51850   0.0135  76.6621 0000491 291.4283 163.6516  1.00271346  5479
NOAA 21 (JPSS-2)        
1 54234U 22150A   26056.45782902  .00000081  00000+0  59180-4 0  9999
2 54234  98.7539 356.8650 0002299 128.6814 231.4568 14.19548451170690
METEOSAT-12 (MTG-I1)    
1 54743U 22170C   26056.39489245 -.00000014  00000+0  00000+0 0  9992
2 54743   0.7357  28.0346 0002072 274.1330 354.9056  1.00273091 11851
TIANMU-1 03             
1 55973U 23039A   26056.50033622  .00016402  00000+0  36539-3 0  9997
2 55973  97.5165 226.4124 0003826 136.3325 223.8226 15.43680124163589
TIANMU-1 04             
1 55974U 23039B   26056.52699462  .00016778  00000+0  36869-3 0  9992
2 55974  97.5096 225.6035 0004520 133.5076 226.6548 15.44079275163598
TIANMU-1 05             
1 55975U 23039C   26056.47645443  .00016405  00000+0  36620-3 0  9999
2 55975  97.5143 226.0435 0003511 154.4663 205.6759 15.43620983163569
TIANMU-1 06             
1 55976U 23039D   26056.52703652  .00016867  00000+0  37027-3 0  9997
2 55976  97.5153 226.6250 0003827 150.4333 209.7132 15.44111000163591
FENGYUN 3G              
1 56232U 23055A   26056.48187829  .00030390  00000+0  46991-3 0  9995
2 56232  49.9918 202.0293 0010557 318.9834  41.0339 15.53710991162642
METEOR-M2 3             
1 57166U 23091A   26056.52161025  .00000006  00000+0  21325-4 0  9993
2 57166  98.6242 113.7106 0004886 127.0599 233.1028 14.24036226138625
TIANMU-1 07             
1 57399U 23101A   26056.47878105  .00007048  00000+0  25086-3 0  9991
2 57399  97.2756 109.6977 0004732 156.8018 203.3437 15.29252486144572
TIANMU-1 08             
1 57400U 23101B   26056.51416238  .00006704  00000+0  23876-3 0  9997
2 57400  97.2746 109.5123 0006337 157.8151 202.3365 15.29244204144576
TIANMU-1 09             
1 57401U 23101C   26056.49555825  .00007430  00000+0  26306-3 0  9999
2 57401  97.2703 108.9771 0005650 158.5734 201.5744 15.29403635144571
TIANMU-1 10             
1 57402U 23101D   26056.53007700  .00006889  00000+0  24405-3 0  9994
2 57402  97.2782 109.9399 0007310 162.7331 197.4160 15.29399159144571
FENGYUN 3F              
1 57490U 23111A   26056.49730883  .00000057  00000+0  47432-4 0  9999
2 57490  98.6954 128.5412 0001420  86.4206 273.7133 14.19916176133013
ARKTIKA-M 2             
1 58584U 23198A   26054.10731457  .00000190  00000+0  00000+0 0  9996
2 58584  63.2206 166.9971 6875515 267.8148  18.8510  2.00613706 16031
TIANMU-1 11             
1 58645U 23205A   26056.54222597  .00006341  00000+0  25137-3 0  9999
2 58645  97.3565  79.8916 0010338  47.7577 312.4536 15.25689389120493
TIANMU-1 12             
1 58646U 23205B   26056.50844862  .00006012  00000+0  23919-3 0  9992
2 58646  97.3553  79.6405 0008220  35.0173 325.1604 15.25608603120476
TIANMU-1 13             
1 58647U 23205C   26056.53974181  .00006443  00000+0  25579-3 0  9996
2 58647  97.3581  79.9048 0007884  17.9225 342.2290 15.25657797120475
TIANMU-1 14             
1 58648U 23205D   26056.52412907  .00006345  00000+0  25204-3 0  9995
2 58648  97.3514  79.1693 0008806  20.6525 339.5068 15.25635292120477
TIANMU-1 19             
1 58660U 23208A   26056.56267140  .00009047  00000+0  31852-3 0  9991
2 58660  97.4375 172.5405 0004776   6.0665 354.0632 15.29535936120254
TIANMU-1 20             
1 58661U 23208B   26056.55640353  .00008972  00000+0  30444-3 0  9994
2 58661  97.4313 173.0557 0007144  11.2074 348.9324 15.30726220120334
TIANMU-1 21             
1 58662U 23208C   26056.57063616  .00010563  00000+0  33677-3 0  9998
2 58662  97.4366 175.2990 0006859   5.0565 355.0745 15.32689574120457
TIANMU-1 22             
1 58663U 23208D   26056.51192302  .00008422  00000+0  30006-3 0  9992
2 58663  97.4369 172.5085 0004075  35.3297 324.8213 15.29172428120255
TIANMU-1 15             
1 58700U 24004A   26056.52186696  .00006372  00000+0  25329-3 0  9993
2 58700  97.4667 242.7781 0007645  31.4795 328.6899 15.25625705118747
TIANMU-1 16             
1 58701U 24004B   26056.50561273  .00006570  00000+0  26090-3 0  9996
2 58701  97.4608 242.0938 0006148  36.4372 323.7284 15.25658491118745
TIANMU-1 17             
1 58702U 24004C   26056.55381937  .00006362  00000+0  25248-3 0  9992
2 58702  97.4640 242.5897 0005376  38.9889 321.1735 15.25695849118744
TIANMU-1 18             
1 58703U 24004D   26056.53859187  .00006668  00000+0  26489-3 0  9995
2 58703  97.4659 242.7841 0004776  39.8189 320.3399 15.25649105118743
INSAT-3DS               
1 58990U 24033A   26056.46975131 -.00000163  00000+0  00000+0 0  9997
2 58990   0.0716 266.6828 0002219  80.6404  59.1932  1.00270713 45943
METEOR-M2 4             
1 59051U 24039A   26056.55019166  .00000028  00000+0  32037-4 0  9998
2 59051  98.6882  17.3307 0007872 127.0978 233.0921 14.22414902103397
GOES 19                 
1 60133U 24119A   26056.43855115 -.00000255  00000+0  00000+0 0  9992
2 60133   0.0050 300.9529 0000921  61.3475 235.6658  1.00271145  5849
FENGYUN 3H              
1 65815U 25219A   26056.42319528  .00000068  00000+0  52216-4 0  9990
2 65815  98.6668 359.4257 0001507  70.2132 289.9207 14.19928819 21522
